{
  "type": "FeatureCollection",
  "features": [
    {
      "type": "Feature",
      "properties": {
        "norad_id": 66655,
        "name": "2025-274F",
        "group": "last-30-days",
        "lat": -69.62403447740432,
        "lon": -62.89734762629059,
        "alt_km": 601.1920948744391,
        "timestamp": "2025-12-14T11:29:48.798856+00:00",
        "meta_object_name": "2025-274F",
        "meta_object_id": "2025-274F",
        "meta_epoch": "2025-12-12T19:33:04.273920",
        "meta_mean_motion": 14.91089281,
        "meta_eccentricity": 0.00054102,
        "meta_inclination": 97.7325,
        "meta_ra_of_asc_node": 274.0134,
        "meta_arg_of_pericenter": 14.8803,
        "meta_mean_anomaly": 345.2574,
        "meta_ephemeris_type": 0,
        "meta_classification_type": "U",
        "meta_norad_cat_id": 66655,
        "meta_element_set_no": 999,
        "meta_rev_at_epoch": 241,
        "meta_bstar": 2.464325e-05,
        "meta_mean_motion_dot": 1.89e-06,
        "meta_mean_motion_ddot": 0,
        "tle_line1": "1 66655U 25274F   25346.81463280  .00000189  00000+0  24643-4 0  9990",
        "tle_line2": "2 66655  97.7325 274.0134 0005410  14.8803 345.2574 14.91089281  2418"
      },
      "geometry": {
        "type": "Point",
        "coordinates": [
          -62.89734762629059,
          -69.62403447740432
        ]
      }
    },
    {
      "type": "Feature",
      "properties": {
        "norad_id": 66656,
        "name": "2025-274G",
        "group": "last-30-days",
        "lat": -55.81277614875723,
        "lon": -72.80182459579815,
        "alt_km": 592.6490885003086,
        "timestamp": "2025-12-14T11:29:48.798868+00:00",
        "meta_object_name": "2025-274G",
        "meta_object_id": "2025-274G",
        "meta_epoch": "2025-12-13T08:23:33.130464",
        "meta_mean_motion": 14.92282632,
        "meta_eccentricity": 0.00123098,
        "meta_inclination": 97.7385,
        "meta_ra_of_asc_node": 274.5408,
        "meta_arg_of_pericenter": 254.5265,
        "meta_mean_anomaly": 105.4595,
        "meta_ephemeris_type": 0,
        "meta_classification_type": "U",
        "meta_norad_cat_id": 66656,
        "meta_element_set_no": 999,
        "meta_rev_at_epoch": 249,
        "meta_bstar": 0.00055491069,
        "meta_mean_motion_dot": 5.618e-05,
        "meta_mean_motion_ddot": 0,
        "tle_line1": "1 66656U 25274G   25347.34968901  .00005618  00000+0  55491-3 0  9996",
        "tle_line2": "2 66656  97.7385 274.5408 0012309 254.5265 105.4595 14.92282632  2497"
      },
      "geometry": {
        "type": "Point",
        "coordinates": [
          -72.80182459579815,
          -55.81277614875723
        ]
      }
    },
    {
      "type": "Feature",
      "properties": {
        "norad_id": 66657,
        "name": "SPIRONE",
        "group": "last-30-days",
        "lat": -44.66529460154561,
        "lon": -76.62177273316057,
        "alt_km": 591.7301294827694,
        "timestamp": "2025-12-14T11:29:48.798880+00:00",
        "meta_object_name": "SPIRONE",
        "meta_object_id": "2025-274H",
        "meta_epoch": "2025-12-13T08:20:40.703712",
        "meta_mean_motion": 14.92461057,
        "meta_eccentricity": 0.00106055,
        "meta_inclination": 97.7381,
        "meta_ra_of_asc_node": 274.5429,
        "meta_arg_of_pericenter": 273.777,
        "meta_mean_anomaly": 86.2237,
        "meta_ephemeris_type": 0,
        "meta_classification_type": "U",
        "meta_norad_cat_id": 66657,
        "meta_element_set_no": 999,
        "meta_rev_at_epoch": 249,
        "meta_bstar": 0.00053040499,
        "meta_mean_motion_dot": 5.39e-05,
        "meta_mean_motion_ddot": 0,
        "tle_line1": "1 66657U 25274H   25347.34769333  .00005390  00000+0  53040-3 0  9990",
        "tle_line2": "2 66657  97.7381 274.5429 0010605 273.7770  86.2237 14.92461057  2497"
      },
      "geometry": {
        "type": "Point",
        "coordinates": [
          -76.62177273316057,
          -44.66529460154561
        ]
      }
    },
    {
      "type": "Feature",
      "properties": {
        "norad_id": 66658,
        "name": "2025-274J",
        "group": "last-30-days",
        "lat": -33.735994070126374,
        "lon": -79.13019166023525,
        "alt_km": 591.2643627633597,
        "timestamp": "2025-12-14T11:29:48.798890+00:00",
        "meta_object_name": "2025-274J",
        "meta_object_id": "2025-274J",
        "meta_epoch": "2025-12-13T14:44:01.044672",
        "meta_mean_motion": 14.92631279,
        "meta_eccentricity": 0.00112028,
        "meta_inclination": 97.7384,
        "meta_ra_of_asc_node": 274.8092,
        "meta_arg_of_pericenter": 275.6136,
        "meta_mean_anomaly": 84.3805,
        "meta_ephemeris_type": 0,
        "meta_classification_type": "U",
        "meta_norad_cat_id": 66658,
        "meta_element_set_no": 999,
        "meta_rev_at_epoch": 253,
        "meta_bstar": 0.00041585971,
        "meta_mean_motion_dot": 4.232e-05,
        "meta_mean_motion_ddot": 0,
        "tle_line1": "1 66658U 25274J   25347.61390098  .00004232  00000+0  41586-3 0  9995",
        "tle_line2": "2 66658  97.7384 274.8092 0011202 275.6136  84.3805 14.92631279  2531"
      },
      "geometry": {
        "type": "Point",
        "coordinates": [
          -79.13019166023525,
          -33.735994070126374
        ]
      }
    },
    {
      "type": "Feature",
      "properties": {
        "norad_id": 66659,
        "name": "JACK K",
        "group": "last-30-days",
        "lat": -21.9905488056103,
        "lon": -81.18699603987777,
        "alt_km": 590.8418715516354,
        "timestamp": "2025-12-14T11:29:48.798900+00:00",
        "meta_object_name": "JACK K",
        "meta_object_id": "2025-274K",
        "meta_epoch": "2025-12-13T14:40:59.109600",
        "meta_mean_motion": 14.92815978,
        "meta_eccentricity": 0.0011962,
        "meta_inclination": 97.7385,
        "meta_ra_of_asc_node": 274.8124,
        "meta_arg_of_pericenter": 277.0731,
        "meta_mean_anomaly": 82.9128,
        "meta_ephemeris_type": 0,
        "meta_classification_type": "U",
        "meta_norad_cat_id": 66659,
        "meta_element_set_no": 999,
        "meta_rev_at_epoch": 253,
        "meta_bstar": 0.00040920362,
        "meta_mean_motion_dot": 4.183e-05,
        "meta_mean_motion_ddot": 0,
        "tle_line1": "1 66659U 25274K   25347.61179525  .00004183  00000+0  40920-3 0  9992",
        "tle_line2": "2 66659  97.7385 274.8124 0011962 277.0731  82.9128 14.92815978  2531"
      },
      "geometry": {
        "type": "Point",
        "coordinates": [
          -81.18699603987777,
          -21.9905488056103
        ]
      }
    },
    {
      "type": "Feature",
      "properties": {
        "norad_id": 66660,
        "name": "K-HERO",
        "group": "last-30-days",
        "lat": -12.477876698042973,
        "lon": -82.60589719693441,
        "alt_km": 590.5650699445514,
        "timestamp": "2025-12-14T11:29:48.798910+00:00",
        "meta_object_name": "K-HERO",
        "meta_object_id": "2025-274L",
        "meta_epoch": "2025-12-13T08:12:29.308896",
        "meta_mean_motion": 14.9296453,
        "meta_eccentricity": 0.00125988,
        "meta_inclination": 97.7389,
        "meta_ra_of_asc_node": 274.5514,
        "meta_arg_of_pericenter": 278.5608,
        "meta_mean_anomaly": 81.4184,
        "meta_ephemeris_type": 0,
        "meta_classification_type": "U",
        "meta_norad_cat_id": 66660,
        "meta_element_set_no": 999,
        "meta_rev_at_epoch": 249,
        "meta_bstar": 0.00043661364,
        "meta_mean_motion_dot": 4.485e-05,
        "meta_mean_motion_ddot": 0,
        "tle_line1": "1 66660U 25274L   25347.34200589  .00004485  00000+0  43661-3 0  9999",
        "tle_line2": "2 66660  97.7389 274.5514 0012598 278.5608  81.4184 14.92964530  2492"
      },
      "geometry": {
        "type": "Point",
        "coordinates": [
          -82.60589719693441,
          -12.477876698042973
        ]
      }
    },
    {
      "type": "Feature",
      "properties": {
        "norad_id": 66661,
        "name": "SNUGLITE-III",
        "group": "last-30-days",
        "lat": -3.1010135397692027,
        "lon": -83.90458973380896,
        "alt_km": 590.2391423396239,
        "timestamp": "2025-12-14T11:29:48.798920+00:00",
        "meta_object_name": "SNUGLITE-III",
        "meta_object_id": "2025-274M",
        "meta_epoch": "2025-12-13T12:59:36.641184",
        "meta_mean_motion": 14.93102786,
        "meta_eccentricity": 0.0013293,
        "meta_inclination": 97.7386,
        "meta_ra_of_asc_node": 274.751,
        "meta_arg_of_pericenter": 279.0275,
        "meta_mean_anomaly": 80.944,
        "meta_ephemeris_type": 0,
        "meta_classification_type": "U",
        "meta_norad_cat_id": 66661,
        "meta_element_set_no": 999,
        "meta_rev_at_epoch": 252,
        "meta_bstar": 0.00033650955,
        "meta_mean_motion_dot": 3.456e-05,
        "meta_mean_motion_ddot": 0,
        "tle_line1": "1 66661U 25274M   25347.54139631  .00003456  00000+0  33651-3 0  9996",
        "tle_line2": "2 66661  97.7386 274.7510 0013293 279.0275  80.9440 14.93102786  2528"
      },
      "geometry": {
        "type": "Point",
        "coordinates": [
          -83.90458973380896,
          -3.1010135397692027
        ]
      }
    }
  ]
}